{
  "type": "FeatureCollection",
  "features": [
    {
      "type": "Feature",
      "properties": {
        "norad_id": 66923,
        "name": "HULIANWANG DIGUI 14J",
        "group": "last-30-days",
        "lat": 19.4885304212954,
        "lon": -58.083359484015524,
        "alt_km": 492.60351290684684,
        "timestamp": "2025-12-06T18:50:08.957321+00:00",
        "meta_object_name": "HULIANWANG DIGUI 14J",
        "meta_object_id": "2025-285J",
        "meta_epoch": "2025-12-06T07:53:29.999616",
        "meta_mean_motion": 15.22918798,
        "meta_eccentricity": 0.0003636,
        "meta_inclination": 51.9094,
        "meta_ra_of_asc_node": 140.189,
        "meta_arg_of_pericenter": 173.2078,
        "meta_mean_anomaly": 360,
        "meta_ephemeris_type": 0,
        "meta_classification_type": "U",
        "meta_norad_cat_id": 66923,
        "meta_element_set_no": 999,
        "meta_rev_at_epoch": 0,
        "meta_bstar": 0,
        "meta_mean_motion_dot": -3.35e-06,
        "meta_mean_motion_ddot": 0,
        "tle_line1": "1 66923U 25285J   25340.32881944 -.00000335  00000+0  00000+0 0  9991",
        "tle_line2": "2 66923  51.9094 140.1890 0003636 173.2078 360.0000 15.22918798    06"
      },
      "geometry": {
        "type": "Point",
        "coordinates": [
          -58.083359484015524,
          19.4885304212954
        ]
      }
    },
    {
      "type": "Feature",
      "properties": {
        "norad_id": 66924,
        "name": "CZ-8A R/B",
        "group": "last-30-days",
        "lat": -31.48192098063011,
        "lon": 110.56829598022155,
        "alt_km": 846.08050789551,
        "timestamp": "2025-12-06T18:50:08.957331+00:00",
        "meta_object_name": "CZ-8A R/B",
        "meta_object_id": "2025-285K",
        "meta_epoch": "2025-12-06T12:19:51.036960",
        "meta_mean_motion": 14.30448863,
        "meta_eccentricity": 0.0118852,
        "meta_inclination": 50.0062,
        "meta_ra_of_asc_node": 142.6566,
        "meta_arg_of_pericenter": 84.4915,
        "meta_mean_anomaly": 276.9544,
        "meta_ephemeris_type": 0,
        "meta_classification_type": "U",
        "meta_norad_cat_id": 66924,
        "meta_element_set_no": 999,
        "meta_rev_at_epoch": 3,
        "meta_bstar": 2.573e-05,
        "meta_mean_motion_dot": -9.5e-07,
        "meta_mean_motion_ddot": 0,
        "tle_line1": "1 66924U 25285K   25340.51378515 -.00000095  00000+0  25730-4 0  9993",
        "tle_line2": "2 66924  50.0062 142.6566 0118852  84.4915 276.9544 14.30448863    39"
      },
      "geometry": {
        "type": "Point",
        "coordinates": [
          110.56829598022155,
          -31.48192098063011
        ]
      }
    }
  ]
}